YAOGAN-43 01D           
1 60461U 24148D   26068.43560480  .00010676  00000+0  37766-3 0  9999
2 60461  35.0010  61.7102 0002556 326.2473  33.8080 15.28369377 87008
STARLINK-34040          
1 63839U 25093D   26068.43189080  .00028192  00000+0  10300-2 0  9990
2 63839  43.0021  79.2819 0001168 264.7212  95.3506 15.27581833 47931
